KUIPER-00112            
1 65150U 25171U   25333.83335647 -.00030332  00000+0 -29783-2 0  9991
2 65150  51.8950 237.5603 0010204 184.6934 311.7513 14.91584619  4390
KUIPER-00114            
1 65151U 25171V   25333.51177411  .00004324  00000+0  59633-3 0  9998
2 65151  51.8985 258.5935 0006763 130.8811 229.2739 14.79901441 17807
KUIPER-00115            
1 65152U 25171W   25333.31721323  .00004833  00000+0  66371-3 0  9996
2 65152  51.8998 251.9318 0010077 153.4270 206.7211 14.79842439 17881
KUIPER-00116            
1 65153U 25171X   25333.81828360  .00004737  00000+0  64990-3 0  9999
2 65153  51.8990 254.7628 0010952 121.9251 238.2778 14.79918096 17881
KUIPER-00118            
1 65154U 25171Y   25333.20780301  .00005862  00000+0  79779-3 0  9996
2 65154  51.9000 259.9150 0002262 121.4916 238.6267 14.79905383 17769
KUIPER-00119            
1 65155U 25171Z   25333.15376065  .00004154  00000+0  57276-3 0  9990
2 65155  51.8990 247.7379 0009157 143.1552 217.0041 14.79983200 17925
KUIPER-00120            
1 65762U 25217A   25333.78675497  .00005614  00000+0  56548-3 0  9998
2 65762  51.8926 134.7968 0016223 321.5611  38.4200 14.92378060  9949
KUIPER-00132            
1 65763U 25217B   25333.70064745  .00024916  00000+0  68323-3 0  9999
2 65763  51.8626 127.8006 0005804 331.5970  28.4699 15.37119301 10039
