<?xml version="1.0" encoding="UTF-8"?>
<ndm xmlns:xsi="http://www.w3.org/2001/XMLSchema-instance" xsi:noNamespaceSchemaLocation="https://sanaregistry.org/r/ndmxml_unqualified/ndmxml-2.0.0-master-2.0.xsd">
<omm id="CCSDS_OMM_VERS" version="2.0">
<header><CREATION_DATE/><ORIGINATOR/></header><body><segment><metadata><OBJECT_NAME>KUIPER-00112</OBJECT_NAME><OBJECT_ID>2025-171U</OBJECT_ID><CENTER_NAME>EARTH</CENTER_NAME><REF_FRAME>TEME</REF_FRAME><TIME_SYSTEM>UTC</TIME_SYSTEM><MEAN_ELEMENT_THEORY>SGP4</MEAN_ELEMENT_THEORY></metadata><data><meanElements><EPOCH>2025-11-29T20:00:01.999008</EPOCH><MEAN_MOTION>14.91584619</MEAN_MOTION><ECCENTRICITY>.0010204</ECCENTRICITY><INCLINATION>51.8950</INCLINATION><RA_OF_ASC_NODE>237.5603</RA_OF_ASC_NODE><ARG_OF_PERICENTER>184.6934</ARG_OF_PERICENTER><MEAN_ANOMALY>311.7513</MEAN_ANOMALY></meanElements><tleParameters><EPHEMERIS_TYPE>0</EPHEMERIS_TYPE><CLASSIFICATION_TYPE>U</CLASSIFICATION_TYPE><NORAD_CAT_ID>65150</NORAD_CAT_ID><ELEMENT_SET_NO>999</ELEMENT_SET_NO><REV_AT_EPOCH>439</REV_AT_EPOCH><BSTAR>-.29783E-2</BSTAR><MEAN_MOTION_DOT>-.30332E-3</MEAN_MOTION_DOT><MEAN_MOTION_DDOT>0</MEAN_MOTION_DDOT></tleParameters></data></segment></body></omm>
<omm id="CCSDS_OMM_VERS" version="2.0">
<header><CREATION_DATE/><ORIGINATOR/></header><body><segment><metadata><OBJECT_NAME>KUIPER-00114</OBJECT_NAME><OBJECT_ID>2025-171V</OBJECT_ID><CENTER_NAME>EARTH</CENTER_NAME><REF_FRAME>TEME</REF_FRAME><TIME_SYSTEM>UTC</TIME_SYSTEM><MEAN_ELEMENT_THEORY>SGP4</MEAN_ELEMENT_THEORY></metadata><data><meanElements><EPOCH>2025-11-29T12:16:57.283104</EPOCH><MEAN_MOTION>14.79901441</MEAN_MOTION><ECCENTRICITY>.0006763</ECCENTRICITY><INCLINATION>51.8985</INCLINATION><RA_OF_ASC_NODE>258.5935</RA_OF_ASC_NODE><ARG_OF_PERICENTER>130.8811</ARG_OF_PERICENTER><MEAN_ANOMALY>229.2739</MEAN_ANOMALY></meanElements><tleParameters><EPHEMERIS_TYPE>0</EPHEMERIS_TYPE><CLASSIFICATION_TYPE>U</CLASSIFICATION_TYPE><NORAD_CAT_ID>65151</NORAD_CAT_ID><ELEMENT_SET_NO>999</ELEMENT_SET_NO><REV_AT_EPOCH>1780</REV_AT_EPOCH><BSTAR>.59633E-3</BSTAR><MEAN_MOTION_DOT>.4324E-4</MEAN_MOTION_DOT><MEAN_MOTION_DDOT>0</MEAN_MOTION_DDOT></tleParameters></data></segment></body></omm>
<omm id="CCSDS_OMM_VERS" version="2.0">
<header><CREATION_DATE/><ORIGINATOR/></header><body><segment><metadata><OBJECT_NAME>KUIPER-00115</OBJECT_NAME><OBJECT_ID>2025-171W</OBJECT_ID><CENTER_NAME>EARTH</CENTER_NAME><REF_FRAME>TEME</REF_FRAME><TIME_SYSTEM>UTC</TIME_SYSTEM><MEAN_ELEMENT_THEORY>SGP4</MEAN_ELEMENT_THEORY></metadata><data><meanElements><EPOCH>2025-11-29T07:36:47.223072</EPOCH><MEAN_MOTION>14.79842439</MEAN_MOTION><ECCENTRICITY>.00100771</ECCENTRICITY><INCLINATION>51.8998</INCLINATION><RA_OF_ASC_NODE>251.9318</RA_OF_ASC_NODE><ARG_OF_PERICENTER>153.4270</ARG_OF_PERICENTER><MEAN_ANOMALY>206.7211</MEAN_ANOMALY></meanElements><tleParameters><EPHEMERIS_TYPE>0</EPHEMERIS_TYPE><CLASSIFICATION_TYPE>U</CLASSIFICATION_TYPE><NORAD_CAT_ID>65152</NORAD_CAT_ID><ELEMENT_SET_NO>999</ELEMENT_SET_NO><REV_AT_EPOCH>1788</REV_AT_EPOCH><BSTAR>.6637126E-3</BSTAR><MEAN_MOTION_DOT>.4833E-4</MEAN_MOTION_DOT><MEAN_MOTION_DDOT>0</MEAN_MOTION_DDOT></tleParameters></data></segment></body></omm>
<omm id="CCSDS_OMM_VERS" version="2.0">
<header><CREATION_DATE/><ORIGINATOR/></header><body><segment><metadata><OBJECT_NAME>KUIPER-00116</OBJECT_NAME><OBJECT_ID>2025-171X</OBJECT_ID><CENTER_NAME>EARTH</CENTER_NAME><REF_FRAME>TEME</REF_FRAME><TIME_SYSTEM>UTC</TIME_SYSTEM><MEAN_ELEMENT_THEORY>SGP4</MEAN_ELEMENT_THEORY></metadata><data><meanElements><EPOCH>2025-11-29T19:38:19.703040</EPOCH><MEAN_MOTION>14.79918096</MEAN_MOTION><ECCENTRICITY>.0010952</ECCENTRICITY><INCLINATION>51.8990</INCLINATION><RA_OF_ASC_NODE>254.7628</RA_OF_ASC_NODE><ARG_OF_PERICENTER>121.9251</ARG_OF_PERICENTER><MEAN_ANOMALY>238.2778</MEAN_ANOMALY></meanElements><tleParameters><EPHEMERIS_TYPE>0</EPHEMERIS_TYPE><CLASSIFICATION_TYPE>U</CLASSIFICATION_TYPE><NORAD_CAT_ID>65153</NORAD_CAT_ID><ELEMENT_SET_NO>999</ELEMENT_SET_NO><REV_AT_EPOCH>1788</REV_AT_EPOCH><BSTAR>.6499E-3</BSTAR><MEAN_MOTION_DOT>.4737E-4</MEAN_MOTION_DOT><MEAN_MOTION_DDOT>0</MEAN_MOTION_DDOT></tleParameters></data></segment></body></omm>
<omm id="CCSDS_OMM_VERS" version="2.0">
<header><CREATION_DATE/><ORIGINATOR/></header><body><segment><metadata><OBJECT_NAME>KUIPER-00118</OBJECT_NAME><OBJECT_ID>2025-171Y</OBJECT_ID><CENTER_NAME>EARTH</CENTER_NAME><REF_FRAME>TEME</REF_FRAME><TIME_SYSTEM>UTC</TIME_SYSTEM><MEAN_ELEMENT_THEORY>SGP4</MEAN_ELEMENT_THEORY></metadata><data><meanElements><EPOCH>2025-11-29T04:59:14.180064</EPOCH><MEAN_MOTION>14.79905383</MEAN_MOTION><ECCENTRICITY>.00022627</ECCENTRICITY><INCLINATION>51.9000</INCLINATION><RA_OF_ASC_NODE>259.9150</RA_OF_ASC_NODE><ARG_OF_PERICENTER>121.4916</ARG_OF_PERICENTER><MEAN_ANOMALY>238.6267</MEAN_ANOMALY></meanElements><tleParameters><EPHEMERIS_TYPE>0</EPHEMERIS_TYPE><CLASSIFICATION_TYPE>U</CLASSIFICATION_TYPE><NORAD_CAT_ID>65154</NORAD_CAT_ID><ELEMENT_SET_NO>999</ELEMENT_SET_NO><REV_AT_EPOCH>1776</REV_AT_EPOCH><BSTAR>.79779178E-3</BSTAR><MEAN_MOTION_DOT>.5862E-4</MEAN_MOTION_DOT><MEAN_MOTION_DDOT>0</MEAN_MOTION_DDOT></tleParameters></data></segment></body></omm>
<omm id="CCSDS_OMM_VERS" version="2.0">
<header><CREATION_DATE/><ORIGINATOR/></header><body><segment><metadata><OBJECT_NAME>KUIPER-00119</OBJECT_NAME><OBJECT_ID>2025-171Z</OBJECT_ID><CENTER_NAME>EARTH</CENTER_NAME><REF_FRAME>TEME</REF_FRAME><TIME_SYSTEM>UTC</TIME_SYSTEM><MEAN_ELEMENT_THEORY>SGP4</MEAN_ELEMENT_THEORY></metadata><data><meanElements><EPOCH>2025-11-29T03:41:24.920160</EPOCH><MEAN_MOTION>14.79983200</MEAN_MOTION><ECCENTRICITY>.0009157</ECCENTRICITY><INCLINATION>51.8990</INCLINATION><RA_OF_ASC_NODE>247.7379</RA_OF_ASC_NODE><ARG_OF_PERICENTER>143.1552</ARG_OF_PERICENTER><MEAN_ANOMALY>217.0041</MEAN_ANOMALY></meanElements><tleParameters><EPHEMERIS_TYPE>0</EPHEMERIS_TYPE><CLASSIFICATION_TYPE>U</CLASSIFICATION_TYPE><NORAD_CAT_ID>65155</NORAD_CAT_ID><ELEMENT_SET_NO>999</ELEMENT_SET_NO><REV_AT_EPOCH>1792</REV_AT_EPOCH><BSTAR>.57276252E-3</BSTAR><MEAN_MOTION_DOT>.4154E-4</MEAN_MOTION_DOT><MEAN_MOTION_DDOT>0</MEAN_MOTION_DDOT></tleParameters></data></segment></body></omm>
<omm id="CCSDS_OMM_VERS" version="2.0">
<header><CREATION_DATE/><ORIGINATOR/></header><body><segment><metadata><OBJECT_NAME>KUIPER-00120</OBJECT_NAME><OBJECT_ID>2025-217A</OBJECT_ID><CENTER_NAME>EARTH</CENTER_NAME><REF_FRAME>TEME</REF_FRAME><TIME_SYSTEM>UTC</TIME_SYSTEM><MEAN_ELEMENT_THEORY>SGP4</MEAN_ELEMENT_THEORY></metadata><data><meanElements><EPOCH>2025-11-29T18:52:55.629408</EPOCH><MEAN_MOTION>14.92378060</MEAN_MOTION><ECCENTRICITY>.0016223</ECCENTRICITY><INCLINATION>51.8926</INCLINATION><RA_OF_ASC_NODE>134.7968</RA_OF_ASC_NODE><ARG_OF_PERICENTER>321.5611</ARG_OF_PERICENTER><MEAN_ANOMALY>38.4200</MEAN_ANOMALY></meanElements><tleParameters><EPHEMERIS_TYPE>0</EPHEMERIS_TYPE><CLASSIFICATION_TYPE>U</CLASSIFICATION_TYPE><NORAD_CAT_ID>65762</NORAD_CAT_ID><ELEMENT_SET_NO>999</ELEMENT_SET_NO><REV_AT_EPOCH>994</REV_AT_EPOCH><BSTAR>.56548E-3</BSTAR><MEAN_MOTION_DOT>.5614E-4</MEAN_MOTION_DOT><MEAN_MOTION_DDOT>0</MEAN_MOTION_DDOT></tleParameters></data></segment></body></omm>
<omm id="CCSDS_OMM_VERS" version="2.0">
<header><CREATION_DATE/><ORIGINATOR/></header><body><segment><metadata><OBJECT_NAME>KUIPER-00132</OBJECT_NAME><OBJECT_ID>2025-217B</OBJECT_ID><CENTER_NAME>EARTH</CENTER_NAME><REF_FRAME>TEME</REF_FRAME><TIME_SYSTEM>UTC</TIME_SYSTEM><MEAN_ELEMENT_THEORY>SGP4</MEAN_ELEMENT_THEORY></metadata><data><meanElements><EPOCH>2025-11-29T16:48:55.939680</EPOCH><MEAN_MOTION>15.37119301</MEAN_MOTION><ECCENTRICITY>.0005804</ECCENTRICITY><INCLINATION>51.8626</INCLINATION><RA_OF_ASC_NODE>127.8006</RA_OF_ASC_NODE><ARG_OF_PERICENTER>331.5970</ARG_OF_PERICENTER><MEAN_ANOMALY>28.4699</MEAN_ANOMALY></meanElements><tleParameters><EPHEMERIS_TYPE>0</EPHEMERIS_TYPE><CLASSIFICATION_TYPE>U</CLASSIFICATION_TYPE><NORAD_CAT_ID>65763</NORAD_CAT_ID><ELEMENT_SET_NO>999</ELEMENT_SET_NO><REV_AT_EPOCH>1003</REV_AT_EPOCH><BSTAR>.68323E-3</BSTAR><MEAN_MOTION_DOT>.24916E-3</MEAN_MOTION_DOT><MEAN_MOTION_DDOT>0</MEAN_MOTION_DDOT></tleParameters></data></segment></body></omm>

</ndm>
